SKYKRAFT-1A             
1 55054U 23001AX  26068.71064616  .00008177  00000+0  30069-3 0  9991
2 55054  97.3349 127.6290 0011277 121.5092 238.7251 15.28083228176529
STARLINK-32878          
1 62892U 25024P   26068.09599059  .00003959  00000+0  15336-3 0  9994
2 62892  43.0033 328.8511 0002716 258.6168 101.4379 15.27569647 62175
